KUIPER-00061            
1 64521U 25134X   25311.67714257  .00006252  00000+0  84823-3 0  9996
2 64521  51.9022  47.6226 0005298 230.5835 129.4658 14.79935212 22064
KUIPER-00062            
1 64522U 25134Y   25311.68697097  .00007252  00000+0  87239-3 0  9995
2 64522  51.8986  53.7884 0006854 252.5505 107.4710 14.84784323 21995
KUIPER-00063            
1 64523U 25134Z   25311.99765713  .00005317  00000+0  72560-3 0  9992
2 64523  51.9024  56.1349 0003623 184.2737 175.8195 14.79955706 21986
KUIPER-00064            
1 64524U 25134AA  25311.99089818  .00007040  00000+0  96015-3 0  9994
2 64524  51.9024  53.4816 0005767 312.9126  47.1352 14.79545425 22024
KUIPER-00065            
1 64525U 25134AB  25311.68791196  .00006236  00000+0  84483-3 0  9992
2 64525  51.9024  59.6968 0010748 239.3432 120.6471 14.79983454 21899
KUIPER-00066            
1 64526U 25134AC  25311.46311250  .00023841  00000+0  11311-2 0  9998
2 64526  51.8915  40.7295 0002606 279.3670  80.7015 15.19143866 22154
KUIPER-00069            
1 64816U 25151A   25312.16668980 -.01276972  00000+0 -12505+0 0  9993
2 64816  51.8931  98.4354 0006803 235.5345 322.1591 14.95028992  5031
KUIPER-00070            
1 64817U 25151B   25312.16719652  .00012986  00000+0  17286-2 0  9991
2 64817  51.8982 122.9380 0009756 199.8308 160.2277 14.79919589 18423
