<?xml version="1.0" encoding="UTF-8"?>
<ndm xmlns:xsi="http://www.w3.org/2001/XMLSchema-instance" xsi:noNamespaceSchemaLocation="https://sanaregistry.org/r/ndmxml_unqualified/ndmxml-2.0.0-master-2.0.xsd">
<omm id="CCSDS_OMM_VERS" version="2.0">
<header><CREATION_DATE/><ORIGINATOR/></header><body><segment><metadata><OBJECT_NAME>KUIPER-00061</OBJECT_NAME><OBJECT_ID>2025-134X</OBJECT_ID><CENTER_NAME>EARTH</CENTER_NAME><REF_FRAME>TEME</REF_FRAME><TIME_SYSTEM>UTC</TIME_SYSTEM><MEAN_ELEMENT_THEORY>SGP4</MEAN_ELEMENT_THEORY></metadata><data><meanElements><EPOCH>2025-11-07T16:15:05.118048</EPOCH><MEAN_MOTION>14.79935212</MEAN_MOTION><ECCENTRICITY>.0005298</ECCENTRICITY><INCLINATION>51.9022</INCLINATION><RA_OF_ASC_NODE>47.6226</RA_OF_ASC_NODE><ARG_OF_PERICENTER>230.5835</ARG_OF_PERICENTER><MEAN_ANOMALY>129.4658</MEAN_ANOMALY></meanElements><tleParameters><EPHEMERIS_TYPE>0</EPHEMERIS_TYPE><CLASSIFICATION_TYPE>U</CLASSIFICATION_TYPE><NORAD_CAT_ID>64521</NORAD_CAT_ID><ELEMENT_SET_NO>999</ELEMENT_SET_NO><REV_AT_EPOCH>2206</REV_AT_EPOCH><BSTAR>.84823E-3</BSTAR><MEAN_MOTION_DOT>.6252E-4</MEAN_MOTION_DOT><MEAN_MOTION_DDOT>0</MEAN_MOTION_DDOT></tleParameters></data></segment></body></omm>
<omm id="CCSDS_OMM_VERS" version="2.0">
<header><CREATION_DATE/><ORIGINATOR/></header><body><segment><metadata><OBJECT_NAME>KUIPER-00062</OBJECT_NAME><OBJECT_ID>2025-134Y</OBJECT_ID><CENTER_NAME>EARTH</CENTER_NAME><REF_FRAME>TEME</REF_FRAME><TIME_SYSTEM>UTC</TIME_SYSTEM><MEAN_ELEMENT_THEORY>SGP4</MEAN_ELEMENT_THEORY></metadata><data><meanElements><EPOCH>2025-11-07T16:29:14.291808</EPOCH><MEAN_MOTION>14.84784323</MEAN_MOTION><ECCENTRICITY>.0006854</ECCENTRICITY><INCLINATION>51.8986</INCLINATION><RA_OF_ASC_NODE>53.7884</RA_OF_ASC_NODE><ARG_OF_PERICENTER>252.5505</ARG_OF_PERICENTER><MEAN_ANOMALY>107.4710</MEAN_ANOMALY></meanElements><tleParameters><EPHEMERIS_TYPE>0</EPHEMERIS_TYPE><CLASSIFICATION_TYPE>U</CLASSIFICATION_TYPE><NORAD_CAT_ID>64522</NORAD_CAT_ID><ELEMENT_SET_NO>999</ELEMENT_SET_NO><REV_AT_EPOCH>2199</REV_AT_EPOCH><BSTAR>.87239E-3</BSTAR><MEAN_MOTION_DOT>.7252E-4</MEAN_MOTION_DOT><MEAN_MOTION_DDOT>0</MEAN_MOTION_DDOT></tleParameters></data></segment></body></omm>
<omm id="CCSDS_OMM_VERS" version="2.0">
<header><CREATION_DATE/><ORIGINATOR/></header><body><segment><metadata><OBJECT_NAME>KUIPER-00063</OBJECT_NAME><OBJECT_ID>2025-134Z</OBJECT_ID><CENTER_NAME>EARTH</CENTER_NAME><REF_FRAME>TEME</REF_FRAME><TIME_SYSTEM>UTC</TIME_SYSTEM><MEAN_ELEMENT_THEORY>SGP4</MEAN_ELEMENT_THEORY></metadata><data><meanElements><EPOCH>2025-11-07T23:56:37.576032</EPOCH><MEAN_MOTION>14.79955706</MEAN_MOTION><ECCENTRICITY>.0003623</ECCENTRICITY><INCLINATION>51.9024</INCLINATION><RA_OF_ASC_NODE>56.1349</RA_OF_ASC_NODE><ARG_OF_PERICENTER>184.2737</ARG_OF_PERICENTER><MEAN_ANOMALY>175.8195</MEAN_ANOMALY></meanElements><tleParameters><EPHEMERIS_TYPE>0</EPHEMERIS_TYPE><CLASSIFICATION_TYPE>U</CLASSIFICATION_TYPE><NORAD_CAT_ID>64523</NORAD_CAT_ID><ELEMENT_SET_NO>999</ELEMENT_SET_NO><REV_AT_EPOCH>2198</REV_AT_EPOCH><BSTAR>.7256E-3</BSTAR><MEAN_MOTION_DOT>.5317E-4</MEAN_MOTION_DOT><MEAN_MOTION_DDOT>0</MEAN_MOTION_DDOT></tleParameters></data></segment></body></omm>
<omm id="CCSDS_OMM_VERS" version="2.0">
<header><CREATION_DATE/><ORIGINATOR/></header><body><segment><metadata><OBJECT_NAME>KUIPER-00064</OBJECT_NAME><OBJECT_ID>2025-134AA</OBJECT_ID><CENTER_NAME>EARTH</CENTER_NAME><REF_FRAME>TEME</REF_FRAME><TIME_SYSTEM>UTC</TIME_SYSTEM><MEAN_ELEMENT_THEORY>SGP4</MEAN_ELEMENT_THEORY></metadata><data><meanElements><EPOCH>2025-11-07T23:46:53.602752</EPOCH><MEAN_MOTION>14.79545425</MEAN_MOTION><ECCENTRICITY>.0005767</ECCENTRICITY><INCLINATION>51.9024</INCLINATION><RA_OF_ASC_NODE>53.4816</RA_OF_ASC_NODE><ARG_OF_PERICENTER>312.9126</ARG_OF_PERICENTER><MEAN_ANOMALY>47.1352</MEAN_ANOMALY></meanElements><tleParameters><EPHEMERIS_TYPE>0</EPHEMERIS_TYPE><CLASSIFICATION_TYPE>U</CLASSIFICATION_TYPE><NORAD_CAT_ID>64524</NORAD_CAT_ID><ELEMENT_SET_NO>999</ELEMENT_SET_NO><REV_AT_EPOCH>2202</REV_AT_EPOCH><BSTAR>.96015E-3</BSTAR><MEAN_MOTION_DOT>.704E-4</MEAN_MOTION_DOT><MEAN_MOTION_DDOT>0</MEAN_MOTION_DDOT></tleParameters></data></segment></body></omm>
<omm id="CCSDS_OMM_VERS" version="2.0">
<header><CREATION_DATE/><ORIGINATOR/></header><body><segment><metadata><OBJECT_NAME>KUIPER-00065</OBJECT_NAME><OBJECT_ID>2025-134AB</OBJECT_ID><CENTER_NAME>EARTH</CENTER_NAME><REF_FRAME>TEME</REF_FRAME><TIME_SYSTEM>UTC</TIME_SYSTEM><MEAN_ELEMENT_THEORY>SGP4</MEAN_ELEMENT_THEORY></metadata><data><meanElements><EPOCH>2025-11-07T16:30:35.593344</EPOCH><MEAN_MOTION>14.79983454</MEAN_MOTION><ECCENTRICITY>.0010748</ECCENTRICITY><INCLINATION>51.9024</INCLINATION><RA_OF_ASC_NODE>59.6968</RA_OF_ASC_NODE><ARG_OF_PERICENTER>239.3432</ARG_OF_PERICENTER><MEAN_ANOMALY>120.6471</MEAN_ANOMALY></meanElements><tleParameters><EPHEMERIS_TYPE>0</EPHEMERIS_TYPE><CLASSIFICATION_TYPE>U</CLASSIFICATION_TYPE><NORAD_CAT_ID>64525</NORAD_CAT_ID><ELEMENT_SET_NO>999</ELEMENT_SET_NO><REV_AT_EPOCH>2189</REV_AT_EPOCH><BSTAR>.84483E-3</BSTAR><MEAN_MOTION_DOT>.6236E-4</MEAN_MOTION_DOT><MEAN_MOTION_DDOT>0</MEAN_MOTION_DDOT></tleParameters></data></segment></body></omm>
<omm id="CCSDS_OMM_VERS" version="2.0">
<header><CREATION_DATE/><ORIGINATOR/></header><body><segment><metadata><OBJECT_NAME>KUIPER-00066</OBJECT_NAME><OBJECT_ID>2025-134AC</OBJECT_ID><CENTER_NAME>EARTH</CENTER_NAME><REF_FRAME>TEME</REF_FRAME><TIME_SYSTEM>UTC</TIME_SYSTEM><MEAN_ELEMENT_THEORY>SGP4</MEAN_ELEMENT_THEORY></metadata><data><meanElements><EPOCH>2025-11-07T11:06:52.920000</EPOCH><MEAN_MOTION>15.19143866</MEAN_MOTION><ECCENTRICITY>.0002606</ECCENTRICITY><INCLINATION>51.8915</INCLINATION><RA_OF_ASC_NODE>40.7295</RA_OF_ASC_NODE><ARG_OF_PERICENTER>279.3670</ARG_OF_PERICENTER><MEAN_ANOMALY>80.7015</MEAN_ANOMALY></meanElements><tleParameters><EPHEMERIS_TYPE>0</EPHEMERIS_TYPE><CLASSIFICATION_TYPE>U</CLASSIFICATION_TYPE><NORAD_CAT_ID>64526</NORAD_CAT_ID><ELEMENT_SET_NO>999</ELEMENT_SET_NO><REV_AT_EPOCH>2215</REV_AT_EPOCH><BSTAR>.11311E-2</BSTAR><MEAN_MOTION_DOT>.23841E-3</MEAN_MOTION_DOT><MEAN_MOTION_DDOT>0</MEAN_MOTION_DDOT></tleParameters></data></segment></body></omm>
<omm id="CCSDS_OMM_VERS" version="2.0">
<header><CREATION_DATE/><ORIGINATOR/></header><body><segment><metadata><OBJECT_NAME>KUIPER-00069</OBJECT_NAME><OBJECT_ID>2025-151A</OBJECT_ID><CENTER_NAME>EARTH</CENTER_NAME><REF_FRAME>TEME</REF_FRAME><TIME_SYSTEM>UTC</TIME_SYSTEM><MEAN_ELEMENT_THEORY>SGP4</MEAN_ELEMENT_THEORY></metadata><data><meanElements><EPOCH>2025-11-08T04:00:01.998720</EPOCH><MEAN_MOTION>14.95028992</MEAN_MOTION><ECCENTRICITY>.0006803</ECCENTRICITY><INCLINATION>51.8931</INCLINATION><RA_OF_ASC_NODE>98.4354</RA_OF_ASC_NODE><ARG_OF_PERICENTER>235.5345</ARG_OF_PERICENTER><MEAN_ANOMALY>322.1591</MEAN_ANOMALY></meanElements><tleParameters><EPHEMERIS_TYPE>0</EPHEMERIS_TYPE><CLASSIFICATION_TYPE>U</CLASSIFICATION_TYPE><NORAD_CAT_ID>64816</NORAD_CAT_ID><ELEMENT_SET_NO>999</ELEMENT_SET_NO><REV_AT_EPOCH>503</REV_AT_EPOCH><BSTAR>-.12505E+0</BSTAR><MEAN_MOTION_DOT>-.1276972E-1</MEAN_MOTION_DOT><MEAN_MOTION_DDOT>0</MEAN_MOTION_DDOT></tleParameters></data></segment></body></omm>
<omm id="CCSDS_OMM_VERS" version="2.0">
<header><CREATION_DATE/><ORIGINATOR/></header><body><segment><metadata><OBJECT_NAME>KUIPER-00070</OBJECT_NAME><OBJECT_ID>2025-151B</OBJECT_ID><CENTER_NAME>EARTH</CENTER_NAME><REF_FRAME>TEME</REF_FRAME><TIME_SYSTEM>UTC</TIME_SYSTEM><MEAN_ELEMENT_THEORY>SGP4</MEAN_ELEMENT_THEORY></metadata><data><meanElements><EPOCH>2025-11-08T04:00:45.779328</EPOCH><MEAN_MOTION>14.79919589</MEAN_MOTION><ECCENTRICITY>.0009756</ECCENTRICITY><INCLINATION>51.8982</INCLINATION><RA_OF_ASC_NODE>122.9380</RA_OF_ASC_NODE><ARG_OF_PERICENTER>199.8308</ARG_OF_PERICENTER><MEAN_ANOMALY>160.2277</MEAN_ANOMALY></meanElements><tleParameters><EPHEMERIS_TYPE>0</EPHEMERIS_TYPE><CLASSIFICATION_TYPE>U</CLASSIFICATION_TYPE><NORAD_CAT_ID>64817</NORAD_CAT_ID><ELEMENT_SET_NO>999</ELEMENT_SET_NO><REV_AT_EPOCH>1842</REV_AT_EPOCH><BSTAR>.17286E-2</BSTAR><MEAN_MOTION_DOT>.12986E-3</MEAN_MOTION_DOT><MEAN_MOTION_DDOT>0</MEAN_MOTION_DDOT></tleParameters></data></segment></body></omm>

</ndm>
